STARLINK-2298
1 48022U 21024AX  26061.10288521  .00108641  00000+0  70168-2 0  9990
2 48022  53.0579   5.9434 0001197  93.2916 266.8210 15.07358232273485
